IRIDIUM 63              
1 25286U 98021B   25285.33674152  .00000683  00000+0  22561-3 0  9991
2 25286  86.4017  32.9601 0001942  94.5952 265.5467 14.36657095440663
IRIDIUM 69              
1 25319U 98026A   25285.61430787  .00000870  00000+0  26406-3 0  9998
2 25319  86.3987  45.7616 0003000  41.0308 319.1117 14.41104976439973
IRIDIUM 71              
1 25320U 98026B   25285.60640219  .00000483  00000+0  14344-3 0  9990
2 25320  86.3997  40.4421 0004066  75.8712 284.2940 14.41258426440506
IRIDIUM 73              
1 25344U 98032C   25285.23496360  .00000821  00000+0  19893-3 0  9998
2 25344  86.4464 357.1167 0001850  77.7857 282.3556 14.51875011447545
IRIDIUM 82              
1 25467U 98051A   25285.76074237  .00068111  00000+0  15701-2 0  9997
2 25467  86.3640  51.6254 0072701 208.2386 151.4919 15.39528533441993
